{"type": "FeatureCollection", "features": [ {"type": "Feature", "properties": {"norad_id": 31619, "name": "FENGYUN 1C DEB", "group": "fengyun-1c-debris", "lat": -77.00283822717711, "lon": -148.79455321156732, "alt_km": 577.1527779563021, "timestamp": "2025-12-02T06:27:53.296706+00:00", "meta": {"OBJECT_NAME": "FENGYUN 1C DEB", "OBJECT_ID": "1999-025BZZ", "EPOCH": "2025-12-01T19:29:38.323104", "MEAN_MOTION": 14.83972972, "ECCENTRICITY": 0.0097911, "INCLINATION": 99.0727, "RA_OF_ASC_NODE": 166.874, "ARG_OF_PERICENTER": 328.0711, "MEAN_ANOMALY": 31.4589, "EPHEMERIS_TYPE": 0, "CLASSIFICATION_TYPE": "U", "NORAD_CAT_ID": 31619, "ELEMENT_SET_NO": 999, "REV_AT_EPOCH": 63326, "BSTAR": 0.0049563, "MEAN_MOTION_DOT": 0.00045087, "MEAN_MOTION_DDOT": 0}, "tle": {"line1": "1 31619U 99025BZZ 25335.81224911  .00045087  00000+0  49563-2 0  9993", "line2": "2 31619  99.0727 166.8740 0097911 328.0711  31.4589 14.83972972633269"}}, "geometry": {"type": "Point", "coordinates": [-148.79455321156732, -77.00283822717711]}}, {"type": "Feature", "properties": {"norad_id": 31620, "name": "FENGYUN 1C DEB", "group": "fengyun-1c-debris", "lat": -72.47309865969761, "lon": -149.6901679853568, "alt_km": 791.0948651400595, "timestamp": "2025-12-02T06:27:53.296722+00:00", "meta": {"OBJECT_NAME": "FENGYUN 1C DEB", "OBJECT_ID": "1999-025CAA", "EPOCH": "2025-11-29T12:06:32.784768", "MEAN_MOTION": 14.36942197, "ECCENTRICITY": 0.0021449, "INCLINATION": 98.8876, "RA_OF_ASC_NODE": 57.1565, "ARG_OF_PERICENTER": 84.3152, "MEAN_ANOMALY": 276.0479, "EPHEMERIS_TYPE": 0, "CLASSIFICATION_TYPE": "U", "NORAD_CAT_ID": 31620, "ELEMENT_SET_NO": 999, "REV_AT_EPOCH": 65654, "BSTAR": 0.0022206597, "MEAN_MOTION_DOT": 6.551e-05, "MEAN_MOTION_DDOT": 0}, "tle": {"line1": "1 31620U 99025CAA 25333.50454612  .00006551  00000+0  22207-2 0  9991", "line2": "2 31620  98.8876  57.1565 0021449  84.3152 276.0479 14.36942197656549"}}, "geometry": {"type": "Point", "coordinates": [-149.6901679853568, -72.47309865969761]}}, {"type": "Feature", "properties": {"norad_id": 31622, "name": "FENGYUN 1C DEB", "group": "fengyun-1c-debris", "lat": -59.52740783724506, "lon": -124.51037366573352, "alt_km": 783.2836480177011, "timestamp": "2025-12-02T06:27:53.296732+00:00", "meta": {"OBJECT_NAME": "FENGYUN 1C DEB", "OBJECT_ID": "1999-025CAC", "EPOCH": "2025-12-01T06:04:16.436064", "MEAN_MOTION": 14.36972364, "ECCENTRICITY": 0.001507, "INCLINATION": 98.8175, "RA_OF_ASC_NODE": 69.7445, "ARG_OF_PERICENTER": 19.4337, "MEAN_ANOMALY": 6.3793, "EPHEMERIS_TYPE": 0, "CLASSIFICATION_TYPE": "U", "NORAD_CAT_ID": 31622, "ELEMENT_SET_NO": 999, "REV_AT_EPOCH": 95607, "BSTAR": 0.0023444, "MEAN_MOTION_DOT": 6.915e-05, "MEAN_MOTION_DDOT": 0}, "tle": {"line1": "1 31622U 99025CAC 25335.25296801  .00006915  00000+0  23444-2 0  9999", "line2": "2 31622  98.8175  69.7445 0015070  19.4337   6.3793 14.36972364956079"}}, "geometry": {"type": "Point", "coordinates": [-124.51037366573352, -59.52740783724506]}}, {"type": "Feature", "properties": {"norad_id": 31623, "name": "FENGYUN 1C DEB", "group": "fengyun-1c-debris", "lat": 67.59405077914725, "lon": 170.84694545984385, "alt_km": 828.035853056268, "timestamp": "2025-12-02T06:27:53.296742+00:00", "meta": {"OBJECT_NAME": "FENGYUN 1C DEB", "OBJECT_ID": "1999-025CAD", "EPOCH": "2025-11-26T07:43:28.036128", "MEAN_MOTION": 13.82573298, "ECCENTRICITY": 0.01953285, "INCLINATION": 97.6311, "RA_OF_ASC_NODE": 184.9965, "ARG_OF_PERICENTER": 51.8673, "MEAN_ANOMALY": 309.9913, "EPHEMERIS_TYPE": 0, "CLASSIFICATION_TYPE": "U", "NORAD_CAT_ID": 31623, "ELEMENT_SET_NO": 999, "REV_AT_EPOCH": 57693, "BSTAR": 0.00041948911, "MEAN_MOTION_DOT": 4.96e-06, "MEAN_MOTION_DDOT": 0}, "tle": {"line1": "1 31623U 99025CAD 25330.32185227  .00000496  00000+0  41949-3 0  9991", "line2": "2 31623  97.6311 184.9965 0195328  51.8673 309.9913 13.82573298576936"}}, "geometry": {"type": "Point", "coordinates": [170.84694545984385, 67.59405077914725]}}, {"type": "Feature", "properties": {"norad_id": 31625, "name": "FENGYUN 1C DEB", "group": "fengyun-1c-debris", "lat": -69.71736988064973, "lon": -143.07685318822595, "alt_km": 812.1852044847928, "timestamp": "2025-12-02T06:27:53.296754+00:00", "meta": {"OBJECT_NAME": "FENGYUN 1C DEB", "OBJECT_ID": "1999-025CAF", "EPOCH": "2025-12-01T11:26:31.255296", "MEAN_MOTION": 14.55370301, "ECCENTRICITY": 0.01499632, "INCLINATION": 98.8069, "RA_OF_ASC_NODE": 60.8907, "ARG_OF_PERICENTER": 49.9559, "MEAN_ANOMALY": 11.9998, "EPHEMERIS_TYPE": 0, "CLASSIFICATION_TYPE": "U", "NORAD_CAT_ID": 31625, "ELEMENT_SET_NO": 999, "REV_AT_EPOCH": 98229, "BSTAR": 0.00018360215, "MEAN_MOTION_DOT": 8.68e-06, "MEAN_MOTION_DDOT": 0}, "tle": {"line1": "1 31625U 99025CAF 25335.47675064  .00000868  00000+0  18360-3 0  9991", "line2": "2 31625  98.8069  60.8907 0149963  49.9559  11.9998 14.55370301982298"}}, "geometry": {"type": "Point", "coordinates": [-143.07685318822595, -69.71736988064973]}}, {"type": "Feature", "properties": {"norad_id": 31627, "name": "FENGYUN 1C DEB", "group": "fengyun-1c-debris", "lat": 26.021336768036903, "lon": -151.53760170847025, "alt_km": 740.9086281484797, "timestamp": "2025-12-02T06:27:53.296764+00:00", "meta": {"OBJECT_NAME": "FENGYUN 1C DEB", "OBJECT_ID": "1999-025CAH", "EPOCH": "2025-11-26T09:13:22.975680", "MEAN_MOTION": 14.35408996, "ECCENTRICITY": 0.00515931, "INCLINATION": 98.5313, "RA_OF_ASC_NODE": 18.4415, "ARG_OF_PERICENTER": 201.9005, "MEAN_ANOMALY": 157.9975, "EPHEMERIS_TYPE": 0, "CLASSIFICATION_TYPE": "U", "NORAD_CAT_ID": 31627, "ELEMENT_SET_NO": 999, "REV_AT_EPOCH": 64532, "BSTAR": 0.0013473839, "MEAN_MOTION_DOT": 3.885e-05, "MEAN_MOTION_DDOT": 0}, "tle": {"line1": "1 31627U 99025CAH 25330.38429370  .00003885  00000+0  13474-2 0  9997", "line2": "2 31627  98.5313  18.4415 0051593 201.9005 157.9975 14.35408996645325"}}, "geometry": {"type": "Point", "coordinates": [-151.53760170847025, 26.021336768036903]}}, {"type": "Feature", "properties": {"norad_id": 31628, "name": "FENGYUN 1C DEB", "group": "fengyun-1c-debris", "lat": 33.74162232312418, "lon": 16.228644304793985, "alt_km": 957.0225809223748, "timestamp": "2025-12-02T06:27:53.296774+00:00", "meta": {"OBJECT_NAME": "FENGYUN 1C DEB", "OBJECT_ID": "1999-025CAJ", "EPOCH": "2025-11-30T20:50:59.665632", "MEAN_MOTION": 13.86731501, "ECCENTRICITY": 0.01703324, "INCLINATION": 102.2703, "RA_OF_ASC_NODE": 186.0385, "ARG_OF_PERICENTER": 248.4726, "MEAN_ANOMALY": 109.8187, "EPHEMERIS_TYPE": 0, "CLASSIFICATION_TYPE": "U", "NORAD_CAT_ID": 31628, "ELEMENT_SET_NO": 999, "REV_AT_EPOCH": 93135, "BSTAR": 0.0021973266, "MEAN_MOTION_DOT": 2.802e-05, "MEAN_MOTION_DDOT": 0}, "tle": {"line1": "1 31628U 99025CAJ 25334.86874613  .00002802  00000+0  21973-2 0  9990", "line2": "2 31628 102.2703 186.0385 0170332 248.4726 109.8187 13.86731501931357"}}, "geometry": {"type": "Point", "coordinates": [16.228644304793985, 33.74162232312418]}}, {"type": "Feature", "properties": {"norad_id": 31629, "name": "FENGYUN 1C DEB", "group": "fengyun-1c-debris", "lat": 68.81352821778609, "lon": -15.229308348200819, "alt_km": 765.7417211088132, "timestamp": "2025-12-02T06:27:53.296784+00:00", "meta": {"OBJECT_NAME": "FENGYUN 1C DEB", "OBJECT_ID": "1999-025CAK", "EPOCH": "2025-12-01T08:03:40.160736", "MEAN_MOTION": 14.14467327, "ECCENTRICITY": 0.01042289, "INCLINATION": 102.1346, "RA_OF_ASC_NODE": 17.2227, "ARG_OF_PERICENTER": 56.4579, "MEAN_ANOMALY": 304.6484, "EPHEMERIS_TYPE": 0, "CLASSIFICATION_TYPE": "U", "NORAD_CAT_ID": 31629, "ELEMENT_SET_NO": 999, "REV_AT_EPOCH": 94285, "BSTAR": 0.0028263297, "MEAN_MOTION_DOT": 5.641e-05, "MEAN_MOTION_DDOT": 0}, "tle": {"line1": "1 31629U 99025CAK 25335.33588149  .00005641  00000+0  28263-2 0  9993", "line2": "2 31629 102.1346  17.2227 0104228  56.4579 304.6484 14.14467327942850"}}, "geometry": {"type": "Point", "coordinates": [-15.229308348200819, 68.81352821778609]}}, {"type": "Feature", "properties": {"norad_id": 31630, "name": "FENGYUN 1C DEB", "group": "fengyun-1c-debris", "lat": -21.96712324906272, "lon": -40.013363543360555, "alt_km": 668.997881903173, "timestamp": "2025-12-02T06:27:53.296794+00:00", "meta": {"OBJECT_NAME": "FENGYUN 1C DEB", "OBJECT_ID": "1999-025CAL", "EPOCH": "2025-11-28T17:02:46.410432", "MEAN_MOTION": 15.05651013, "ECCENTRICITY": 0.0167781, "INCLINATION": 98.0901, "RA_OF_ASC_NODE": 139.5424, "ARG_OF_PERICENTER": 43.6541, "MEAN_ANOMALY": 317.7815, "EPHEMERIS_TYPE": 0, "CLASSIFICATION_TYPE": "U", "NORAD_CAT_ID": 31630, "ELEMENT_SET_NO": 999, "REV_AT_EPOCH": 98379, "BSTAR": 0.00077583997, "MEAN_MOTION_DOT": 0.00015356, "MEAN_MOTION_DDOT": 0}, "tle": {"line1": "1 31630U 99025CAL 25332.71025938  .00015356  00000+0  77584-3 0  9991", "line2": "2 31630  98.0901 139.5424 0167781  43.6541 317.7815 15.05651013983798"}}, "geometry": {"type": "Point", "coordinates": [-40.013363543360555, -21.96712324906272]}}, {"type": "Feature", "properties": {"norad_id": 31631, "name": "FENGYUN 1C DEB", "group": "fengyun-1c-debris", "lat": 76.56087503531965, "lon": 109.09581304301325, "alt_km": 659.8121794888239, "timestamp": "2025-12-02T06:27:53.296804+00:00", "meta": {"OBJECT_NAME": "FENGYUN 1C DEB", "OBJECT_ID": "1999-025CAM", "EPOCH": "2025-11-28T23:34:31.488960", "MEAN_MOTION": 14.69293826, "ECCENTRICITY": 0.00676029, "INCLINATION": 99.3421, "RA_OF_ASC_NODE": 241.7954, "ARG_OF_PERICENTER": 13.5824, "MEAN_ANOMALY": 346.7177, "EPHEMERIS_TYPE": 0, "CLASSIFICATION_TYPE": "U", "NORAD_CAT_ID": 31631, "ELEMENT_SET_NO": 999, "REV_AT_EPOCH": 63770, "BSTAR": 0.0080354526, "MEAN_MOTION_DOT": 0.00049381, "MEAN_MOTION_DDOT": 0}, "tle": {"line1": "1 31631U 99025CAM 25332.98230890  .00049381  00000+0  80355-2 0  9990", "line2": "2 31631  99.3421 241.7954 0067602  13.5824 346.7177 14.69293826637708"}}, "geometry": {"type": "Point", "coordinates": [109.09581304301325, 76.56087503531965]}}]}